[{"OBJECT_NAME":"STARLINK-1954","OBJECT_ID":"2021-009H","EPOCH":"2026-03-09T23:20:25.352160","MEAN_MOTION":15.30849174,"ECCENTRICITY":0.00046184,"INCLINATION":53.0574,"RA_OF_ASC_NODE":8.8654,"ARG_OF_PERICENTER":103.3293,"MEAN_ANOMALY":256.8222,"EPHEMERIS_TYPE":0,"CLASSIFICATION_TYPE":"U","NORAD_CAT_ID":47555,"ELEMENT_SET_NO":999,"REV_AT_EPOCH":28100,"BSTAR":0.0022371791,"MEAN_MOTION_DOT":0.00067883,"MEAN_MOTION_DDOT":0},{"OBJECT_NAME":"STARLINK-34997","OBJECT_ID":"2025-192Q","EPOCH":"2026-03-09T22:00:01.999584","MEAN_MOTION":15.30190228,"ECCENTRICITY":8.283e-5,"INCLINATION":53.1578,"RA_OF_ASC_NODE":231.3164,"ARG_OF_PERICENTER":37.1136,"MEAN_ANOMALY":145.9473,"EPHEMERIS_TYPE":0,"CLASSIFICATION_TYPE":"U","NORAD_CAT_ID":65418,"ELEMENT_SET_NO":999,"REV_AT_EPOCH":578,"BSTAR":0.002464819,"MEAN_MOTION_DOT":0.00073342,"MEAN_MOTION_DDOT":0}]
